INTELSAT 21 (IS-21)     
1 38749U 12045A   26161.25717292 -.00000267  00000+0  00000+0 0  9998
2 38749   0.0227 283.3658 0001677 177.3275 192.4944  1.00267022 50459
INTELSAT 23 (IS-23)     
1 38867U 12057A   26161.32942771 -.00000267  00000+0  00000+0 0  9992
2 38867   0.0171 300.6459 0000081 126.1724 257.4787  1.00269014 49884
FM-6                    
1 39360U 13058A   26159.62959519  .00000003  00000+0  00000+0 0  9998
2 39360   0.0107  82.6412 0002771  69.5183 215.1325  1.00255605 45982
INTELSAT 30 (IS-30)     
1 40271U 14062A   26161.03591126 -.00000132  00000+0  00000+0 0  9995
2 40271   0.0228  41.0330 0000821 352.5032 142.6782  1.00267059  6725
DIRECTV 14              
1 40333U 14078B   26160.05357880 -.00000109  00000+0  00000+0 0  9993
2 40333   0.0091   1.3268 0000235 206.1301 330.0282  1.00271044 41965
DIRECTV 15              
1 40663U 15026A   26161.24830156 -.00000085  00000+0  00000+0 0  9990
2 40663   0.0184   3.7345 0000654 280.2777 321.1253  1.00269531 40394
SKY MEXICO-1            
1 40664U 15026B   26161.32431434 -.00000217  00000+0  00000+0 0  9993
2 40664   0.0155 310.8688 0002096 147.0453 198.7302  1.00270910 40383
INTELSAT 34 (IS-34)     
1 40874U 15039A   26161.32890771 -.00000268  00000+0  00000+0 0  9999
2 40874   0.0112 323.8665 0000358  11.9971 345.7535  1.00270209 39562
INTELSAT 31 (IS-31)     
1 41581U 16035A   26161.32110766 -.00000133  00000+0  00000+0 0  9992
2 41581   0.0167 265.7564 0000993 337.3759  36.1033  1.00269745 36614
INTELSAT 36 (IS-36)     
1 41747U 16053A   26161.46850264 -.00000007  00000+0  00000+0 0  9995
2 41747   0.0115 359.4493 0001854 334.1187 162.4139  1.00270442 35895
INTELSAT 32E (IS-32E)   
1 41945U 17007B   26160.08652259 -.00000252  00000+0  00000+0 0  9998
2 41945   0.0023 348.0424 0000672 336.8096 280.6015  1.00274840 34145
INTELSAT 35E (IS-35E)   
1 42818U 17041A   26161.33306772 -.00000220  00000+0  00000+0 0  9996
2 42818   0.0042  73.2887 0001671   4.7261 266.1135  1.00271307 32742
INTELSAT 37E (IS-37E)   
1 42950U 17059A   26161.31711630 -.00000123  00000+0  00000+0 0  9995
2 42950   0.0043  78.2473 0002381  24.2615 252.3325  1.00270044 31996
AZERSPACE 2 (IS-38)     
1 43632U 18074A   26161.20628475  .00000154  00000+0  00000+0 0  9996
2 43632   0.0026  68.5663 0001233  12.8664 296.5131  1.00271658 28375
HORIZONS-3E             
1 43633U 18074B   26160.16142285 -.00000014  00000+0  00000+0 0  9997
2 43633   0.0093 158.1609 0000957 124.5481 201.9406  1.00270197 28266
AT&T T-16               
1 44333U 19034A   26160.67834545 -.00000098  00000+0  00000+0 0  9997
2 44333   0.0247  68.1337 0000640 190.5571 142.7032  1.00268740 25552
INTELSAT 39 (IS-39)     
1 44476U 19049B   26161.42320078  .00000051  00000+0  00000+0 0  9994
2 44476   0.0194 323.7072 0000913 348.4346 160.9496  1.00270443 25069
GALAXY 30 (G-30)        
1 46114U 20056C   26161.47128153  .00000054  00000+0  00000+0 0  9993
2 46114   0.0200 325.1638 0002099 109.9404 228.3981  1.00273485 21225
GALAXY 33 (G-33)        
1 54026U 22128A   26161.47683639  .00000096  00000+0  00000+0 0  9997
2 54026   0.0098 319.9546 0001785 126.2364 211.3245  1.00271658 13673
GALAXY 34 (G-34)        
1 54027U 22128B   26159.95980211  .00000075  00000+0  00000+0 0  9991
2 54027   0.0154 329.7482 0001861 136.9348   7.2031  1.00274719 13834
GALAXY 31 (G-31)        
1 54243U 22153A   26161.31596270  .00000031  00000+0  00000+0 0  9992
2 54243   0.0155 288.8894 0001229 149.1642 173.3803  1.00272143  7067
GALAXY 32 (G-32)        
1 54244U 22153B   26160.32382733 -.00000157  00000+0  00000+0 0  9990
2 54244   0.0091 331.9838 0002164  65.0548 246.2445  1.00270919 13063
GALAXY 35 (G-35)        
1 54741U 22170A   26160.45862207 -.00000145  00000+0  00000+0 0  9991
2 54741   0.0337 106.4075 0002031 335.1959 248.2408  1.00271145 12811
GALAXY 36 (G-36)        
1 54742U 22170B   26161.32232101 -.00000168  00000+0  00000+0 0  9998
2 54742   0.0079  32.2609 0002602  51.6739 201.7876  1.00270496 12703
GALAXY 37 (G-37)        
1 57493U 23112A   26161.24353490  .00000065  00000+0  00000+0 0  9992
2 57493   0.0183   0.4076 0001866  80.0650 138.8145  1.00271927 10470
